CCSDS_OMM_VERS = 2.0
CREATION_DATE  = 
ORIGINATOR     = 

OBJECT_NAME    = STARLINK-36994
OBJECT_ID      = 2026-039M
CENTER_NAME    = EARTH
REF_FRAME      = TEME
TIME_SYSTEM    = UTC
MEAN_ELEMENT_THEORY = SGP/SGP4

EPOCH          = 2026-03-08T14:00:01.999872
MEAN_MOTION    = 15.88853599
ECCENTRICITY   = .00016133
INCLINATION    = 42.9972
RA_OF_ASC_NODE = 61.6497
ARG_OF_PERICENTER = 262.9846
MEAN_ANOMALY   = 340.0416

EPHEMERIS_TYPE = 0
CLASSIFICATION_TYPE = U
NORAD_CAT_ID   = 67997
ELEMENT_SET_NO = 999
REV_AT_EPOCH   = 270
BSTAR          = -.57612316E-2
MEAN_MOTION_DOT = -.1467625E-1
MEAN_MOTION_DDOT = 0

CCSDS_OMM_VERS = 2.0
CREATION_DATE  = 
ORIGINATOR     = 

OBJECT_NAME    = STARLINK-36988
OBJECT_ID      = 2026-039N
CENTER_NAME    = EARTH
REF_FRAME      = TEME
TIME_SYSTEM    = UTC
MEAN_ELEMENT_THEORY = SGP/SGP4

EPOCH          = 2026-03-08T14:00:01.999872
MEAN_MOTION    = 15.88695929
ECCENTRICITY   = .00016273
INCLINATION    = 42.9974
RA_OF_ASC_NODE = 61.6581
ARG_OF_PERICENTER = 268.0771
MEAN_ANOMALY   = 331.7350

EPHEMERIS_TYPE = 0
CLASSIFICATION_TYPE = U
NORAD_CAT_ID   = 67998
ELEMENT_SET_NO = 999
REV_AT_EPOCH   = 270
BSTAR          = -.57473238E-2
MEAN_MOTION_DOT = -.1454437E-1
MEAN_MOTION_DDOT = 0

CCSDS_OMM_VERS = 2.0
CREATION_DATE  = 
ORIGINATOR     = 

OBJECT_NAME    = STARLINK-36926
OBJECT_ID      = 2026-039P
CENTER_NAME    = EARTH
REF_FRAME      = TEME
TIME_SYSTEM    = UTC
MEAN_ELEMENT_THEORY = SGP/SGP4

EPOCH          = 2026-03-08T14:00:01.999872
MEAN_MOTION    = 15.88995242
ECCENTRICITY   = .00017469
INCLINATION    = 42.9973
RA_OF_ASC_NODE = 61.6418
ARG_OF_PERICENTER = 265.5524
MEAN_ANOMALY   = 340.7643

EPHEMERIS_TYPE = 0
CLASSIFICATION_TYPE = U
NORAD_CAT_ID   = 67999
ELEMENT_SET_NO = 999
REV_AT_EPOCH   = 270
BSTAR          = -.57231618E-2
MEAN_MOTION_DOT = -.1468515E-1
MEAN_MOTION_DDOT = 0

CCSDS_OMM_VERS = 2.0
CREATION_DATE  = 
ORIGINATOR     = 

OBJECT_NAME    = STARLINK-36931
OBJECT_ID      = 2026-039Q
CENTER_NAME    = EARTH
REF_FRAME      = TEME
TIME_SYSTEM    = UTC
MEAN_ELEMENT_THEORY = SGP/SGP4

EPOCH          = 2026-03-08T14:00:01.999872
MEAN_MOTION    = 15.89160233
ECCENTRICITY   = .00016843
INCLINATION    = 42.9974
RA_OF_ASC_NODE = 61.6345
ARG_OF_PERICENTER = 266.5952
MEAN_ANOMALY   = 342.6154

EPHEMERIS_TYPE = 0
CLASSIFICATION_TYPE = U
NORAD_CAT_ID   = 68000
ELEMENT_SET_NO = 999
REV_AT_EPOCH   = 270
BSTAR          = -.56371808E-2
MEAN_MOTION_DOT = -.1459991E-1
MEAN_MOTION_DDOT = 0

CCSDS_OMM_VERS = 2.0
CREATION_DATE  = 
ORIGINATOR     = 

OBJECT_NAME    = STARLINK-36903
OBJECT_ID      = 2026-039R
CENTER_NAME    = EARTH
REF_FRAME      = TEME
TIME_SYSTEM    = UTC
MEAN_ELEMENT_THEORY = SGP/SGP4

EPOCH          = 2026-03-08T14:00:01.999872
MEAN_MOTION    = 15.89288635
ECCENTRICITY   = .00016375
INCLINATION    = 42.9975
RA_OF_ASC_NODE = 61.6262
ARG_OF_PERICENTER = 268.0207
MEAN_ANOMALY   = 344.5160

EPHEMERIS_TYPE = 0
CLASSIFICATION_TYPE = U
NORAD_CAT_ID   = 68001
ELEMENT_SET_NO = 999
REV_AT_EPOCH   = 270
BSTAR          = -.55648118E-2
MEAN_MOTION_DOT = -.1451966E-1
MEAN_MOTION_DDOT = 0

CCSDS_OMM_VERS = 2.0
CREATION_DATE  = 
ORIGINATOR     = 

OBJECT_NAME    = STARLINK-36898
OBJECT_ID      = 2026-039S
CENTER_NAME    = EARTH
REF_FRAME      = TEME
TIME_SYSTEM    = UTC
MEAN_ELEMENT_THEORY = SGP/SGP4

EPOCH          = 2026-03-08T14:00:01.999872
MEAN_MOTION    = 15.89573245
ECCENTRICITY   = .00016924
INCLINATION    = 42.9974
RA_OF_ASC_NODE = 61.6097
ARG_OF_PERICENTER = 267.3235
MEAN_ANOMALY   = 351.5938

EPHEMERIS_TYPE = 0
CLASSIFICATION_TYPE = U
NORAD_CAT_ID   = 68002
ELEMENT_SET_NO = 999
REV_AT_EPOCH   = 270
BSTAR          = -.54889423E-2
MEAN_MOTION_DOT = -.1453137E-1
MEAN_MOTION_DDOT = 0

CCSDS_OMM_VERS = 2.0
CREATION_DATE  = 
ORIGINATOR     = 

OBJECT_NAME    = STARLINK-36862
OBJECT_ID      = 2026-039T
CENTER_NAME    = EARTH
REF_FRAME      = TEME
TIME_SYSTEM    = UTC
MEAN_ELEMENT_THEORY = SGP/SGP4

EPOCH          = 2026-03-08T14:00:01.999872
MEAN_MOTION    = 15.89862137
ECCENTRICITY   = .00016794
INCLINATION    = 42.9975
RA_OF_ASC_NODE = 61.5943
ARG_OF_PERICENTER = 269.8714
MEAN_ANOMALY   = 355.1478

EPHEMERIS_TYPE = 0
CLASSIFICATION_TYPE = U
NORAD_CAT_ID   = 68003
ELEMENT_SET_NO = 999
REV_AT_EPOCH   = 270
BSTAR          = -.53795215E-2
MEAN_MOTION_DOT = -.1446535E-1
MEAN_MOTION_DDOT = 0

CCSDS_OMM_VERS = 2.0
CREATION_DATE  = 
ORIGINATOR     = 

OBJECT_NAME    = STARLINK-36888
OBJECT_ID      = 2026-039U
CENTER_NAME    = EARTH
REF_FRAME      = TEME
TIME_SYSTEM    = UTC
MEAN_ELEMENT_THEORY = SGP/SGP4

EPOCH          = 2026-03-08T14:00:01.999872
MEAN_MOTION    = 15.89433720
ECCENTRICITY   = .00016039
INCLINATION    = 42.9976
RA_OF_ASC_NODE = 61.6185
ARG_OF_PERICENTER = 268.4051
MEAN_ANOMALY   = 347.2600

EPHEMERIS_TYPE = 0
CLASSIFICATION_TYPE = U
NORAD_CAT_ID   = 68004
ELEMENT_SET_NO = 999
REV_AT_EPOCH   = 270
BSTAR          = -.5518332E-2
MEAN_MOTION_DOT = -.1450754E-1
MEAN_MOTION_DDOT = 0

CCSDS_OMM_VERS = 2.0
CREATION_DATE  = 
ORIGINATOR     = 

OBJECT_NAME    = STARLINK-36910
OBJECT_ID      = 2026-039V
CENTER_NAME    = EARTH
REF_FRAME      = TEME
TIME_SYSTEM    = UTC
MEAN_ELEMENT_THEORY = SGP/SGP4

EPOCH          = 2026-03-08T14:00:01.999872
MEAN_MOTION    = 15.89713920
ECCENTRICITY   = .00016713
INCLINATION    = 42.9974
RA_OF_ASC_NODE = 61.6018
ARG_OF_PERICENTER = 269.8578
MEAN_ANOMALY   = 352.2219

EPHEMERIS_TYPE = 0
CLASSIFICATION_TYPE = U
NORAD_CAT_ID   = 68005
ELEMENT_SET_NO = 999
REV_AT_EPOCH   = 270
BSTAR          = -.54485899E-2
MEAN_MOTION_DOT = -.1452948E-1
MEAN_MOTION_DDOT = 0

CCSDS_OMM_VERS = 2.0
CREATION_DATE  = 
ORIGINATOR     = 

OBJECT_NAME    = STARLINK-36889
OBJECT_ID      = 2026-039W
CENTER_NAME    = EARTH
REF_FRAME      = TEME
TIME_SYSTEM    = UTC
MEAN_ELEMENT_THEORY = SGP/SGP4

EPOCH          = 2026-03-08T14:00:01.999872
MEAN_MOTION    = 15.90009795
ECCENTRICITY   = .00016749
INCLINATION    = 42.9975
RA_OF_ASC_NODE = 61.5862
ARG_OF_PERICENTER = 269.6556
MEAN_ANOMALY   = 358.3810

EPHEMERIS_TYPE = 0
CLASSIFICATION_TYPE = U
NORAD_CAT_ID   = 68006
ELEMENT_SET_NO = 999
REV_AT_EPOCH   = 270
BSTAR          = -.53333916E-2
MEAN_MOTION_DOT = -.1445297E-1
MEAN_MOTION_DDOT = 0

CCSDS_OMM_VERS = 2.0
CREATION_DATE  = 
ORIGINATOR     = 

OBJECT_NAME    = STARLINK-36592
OBJECT_ID      = 2026-039X
CENTER_NAME    = EARTH
REF_FRAME      = TEME
TIME_SYSTEM    = UTC
MEAN_ELEMENT_THEORY = SGP/SGP4

EPOCH          = 2026-03-08T14:00:01.999872
MEAN_MOTION    = 15.90157363
ECCENTRICITY   = .00016767
INCLINATION    = 42.9972
RA_OF_ASC_NODE = 61.5792
ARG_OF_PERICENTER = 267.6534
MEAN_ANOMALY   = 3.3823

EPHEMERIS_TYPE = 0
CLASSIFICATION_TYPE = U
NORAD_CAT_ID   = 68007
ELEMENT_SET_NO = 999
REV_AT_EPOCH   = 270
BSTAR          = -.52986195E-2
MEAN_MOTION_DOT = -.1446671E-1
MEAN_MOTION_DDOT = 0

CCSDS_OMM_VERS = 2.0
CREATION_DATE  = 
ORIGINATOR     = 

OBJECT_NAME    = STARLINK-36911
OBJECT_ID      = 2026-039Y
CENTER_NAME    = EARTH
REF_FRAME      = TEME
TIME_SYSTEM    = UTC
MEAN_ELEMENT_THEORY = SGP/SGP4

EPOCH          = 2026-03-08T14:00:01.999872
MEAN_MOTION    = 15.90296874
ECCENTRICITY   = .00018245
INCLINATION    = 42.9975
RA_OF_ASC_NODE = 61.5713
ARG_OF_PERICENTER = 265.6308
MEAN_ANOMALY   = 8.5119

EPHEMERIS_TYPE = 0
CLASSIFICATION_TYPE = U
NORAD_CAT_ID   = 68008
ELEMENT_SET_NO = 999
REV_AT_EPOCH   = 270
BSTAR          = -.52736247E-2
MEAN_MOTION_DOT = -.1449947E-1
MEAN_MOTION_DDOT = 0

