STARLINK-36994          
1 67997U 26039M   26067.58335648 -.01467625  00000+0 -57612-2 0  9996
2 67997  42.9972  61.6497 0001613 262.9846 340.0416 15.88853599  2702
STARLINK-36988          
1 67998U 26039N   26067.58335648 -.01454437  00000+0 -57473-2 0  9999
2 67998  42.9974  61.6581 0001627 268.0771 331.7350 15.88695929  2703
STARLINK-36926          
1 67999U 26039P   26067.58335648 -.01468515  00000+0 -57232-2 0  9995
2 67999  42.9973  61.6418 0001746 265.5524 340.7643 15.88995242  2708
STARLINK-36931          
1 68000U 26039Q   26067.58335648 -.01459991  00000+0 -56372-2 0  9991
2 68000  42.9974  61.6345 0001684 266.5952 342.6154 15.89160233  2702
STARLINK-36903          
1 68001U 26039R   26067.58335648 -.01451966  00000+0 -55648-2 0  9991
2 68001  42.9975  61.6262 0001637 268.0207 344.5160 15.89288635  2705
STARLINK-36898          
1 68002U 26039S   26067.58335648 -.01453137  00000+0 -54889-2 0  9990
2 68002  42.9974  61.6097 0001692 267.3235 351.5938 15.89573245  2700
STARLINK-36862          
1 68003U 26039T   26067.58335648 -.01446535  00000+0 -53795-2 0  9990
2 68003  42.9975  61.5943 0001679 269.8714 355.1478 15.89862137  2705
STARLINK-36888          
1 68004U 26039U   26067.58335648 -.01450754  00000+0 -55183-2 0  9992
2 68004  42.9976  61.6185 0001603 268.4051 347.2600 15.89433720  2703
STARLINK-36910          
1 68005U 26039V   26067.58335648 -.01452948  00000+0 -54486-2 0  9995
2 68005  42.9974  61.6018 0001671 269.8578 352.2219 15.89713920  2706
STARLINK-36889          
1 68006U 26039W   26067.58335648 -.01445297  00000+0 -53334-2 0  9996
2 68006  42.9975  61.5862 0001674 269.6556 358.3810 15.90009795  2705
STARLINK-36592          
1 68007U 26039X   26067.58335648 -.01446671  00000+0 -52986-2 0  9996
2 68007  42.9972  61.5792 0001676 267.6534   3.3823 15.90157363  2707
STARLINK-36911          
1 68008U 26039Y   26067.58335648 -.01449947  00000+0 -52736-2 0  9999
2 68008  42.9975  61.5713 0001824 265.6308   8.5119 15.90296874  2702
